1 25118U 97084G 26162.06092353 .00001110 00000+0 33803-3 0 9992 
2 25118 45.0140 82.2037 0001708 312.0862 66.2883 14.47547713493500 
1 25159U 98007C 26161.98444054 .00000744 00000+0 30030-3 0 9993 
2 25159 107.9626 156.6532 0041147 335.4473 24.4708 14.35729887475701 
1 25415U 98046C 26162.06559507 .00000633 00000+0 24673-3 0 9994 
2 25415 44.9941 272.6599 0004443 257.1030 278.0343 14.39485896455898 
1 25416U 98046D 26162.03848863 .00000523 00000+0 21768-3 0 9998 
2 25416 44.9947 280.6433 0001914 229.7231 130.3450 14.38058493455908 
1 25481U 98053G 26162.21751690 .00000748 00000+0 28526-3 0 9997 
2 25481 45.0066 3.7074 0000449 158.6503 201.4365 14.39130154449378 
1 25982U 99065C 26162.17302294 .00000423 00000+0 18832-3 0 9993 
2 25982 45.0137 201.7077 0004862 3.5812 356.5070 14.37123480386221 
1 40086U 14040A 26162.13987668 .00000338 00000+0 10777-3 0 9990 
2 40086 47.0025 120.0774 0001750 230.5593 129.5138 14.58838155633468 
1 41179U 15081A 26161.33530056 .00000390 00000+0 11875-3 0 9994 
2 41179 47.0059 34.3990 0002055 179.4060 180.6828 14.58850721556758 
1 41182U 15081D 26161.94016889 .00000595 00000+0 16201-3 0 9993 
2 41182 47.0029 30.9800 0002739 38.8036 321.3046 14.58870704556716 
1 41183U 15081E 26161.35803056 .00002098 00000+0 47979-3 0 9995 
2 41183 47.0037 34.0634 0003091 351.4383 8.6449 14.58873126556732 
1 41184U 15081F 26162.11606264 .00000501 00000+0 14209-3 0 9990 
2 41184 47.0000 298.9558 0003377 191.4883 168.5926 14.58895056558063 
1 41185U 15081G 26162.09249909 .00000347 00000+0 10965-3 0 9990 
2 41185 47.0018 299.4404 0001933 200.8017 159.2791 14.58852234558045 
1 41187U 15081J 26161.84948337 .00000359 00000+0 11220-3 0 9993 
2 41187 47.0039 212.1631 0002633 196.7384 163.3416 14.58864191559150 
1 41188U 15081K 26161.60951894 .00000375 00000+0 11561-3 0 9996 
2 41188 47.0000 211.9327 0003140 197.2897 162.7882 14.58860318559165 
1 41189U 15081L 26162.06944096 .00000524 00000+0 14702-3 0 9990 
2 41189 47.0034 299.5479 0000894 20.3124 339.7798 14.58873761558049 
